[{"OBJECT_NAME":"FALCONSAT-10","OBJECT_ID":"2023-174AM","EPOCH":"2026-03-09T16:51:34.085376","MEAN_MOTION":15.26670596,"ECCENTRICITY":0.00089318,"INCLINATION":97.3865,"RA_OF_ASC_NODE":145.7938,"ARG_OF_PERICENTER":169.5942,"MEAN_ANOMALY":190.5483,"EPHEMERIS_TYPE":0,"CLASSIFICATION_TYPE":"U","NORAD_CAT_ID":58291,"ELEMENT_SET_NO":999,"REV_AT_EPOCH":12958,"BSTAR":0.00025968794,"MEAN_MOTION_DOT":6.748e-5,"MEAN_MOTION_DDOT":0},{"OBJECT_NAME":"STARLINK-35974","OBJECT_ID":"2025-281Q","EPOCH":"2026-03-09T03:41:41.873568","MEAN_MOTION":15.27571682,"ECCENTRICITY":0.00018218,"INCLINATION":43.0029,"RA_OF_ASC_NODE":346.4961,"ARG_OF_PERICENTER":265.8098,"MEAN_ANOMALY":94.2545,"EPHEMERIS_TYPE":0,"CLASSIFICATION_TYPE":"U","NORAD_CAT_ID":66862,"ELEMENT_SET_NO":999,"REV_AT_EPOCH":1610,"BSTAR":0.0011520303,"MEAN_MOTION_DOT":0.00031567,"MEAN_MOTION_DDOT":0}]
